OBJECT_NAME,OBJECT_ID,EPOCH,MEAN_MOTION,ECCENTRICITY,INCLINATION,RA_OF_ASC_NODE,ARG_OF_PERICENTER,MEAN_ANOMALY,EPHEMERIS_TYPE,CLASSIFICATION_TYPE,NORAD_CAT_ID,ELEMENT_SET_NO,REV_AT_EPOCH,BSTAR,MEAN_MOTION_DOT,MEAN_MOTION_DDOT
PERSEUS-M1,2014-033AF,2026-06-27T01:42:53.874432,14.95665219,.00098037,97.9648,122.3656,264.1554,95.8549,0,U,40039,999,65211,.17656074E-3,.1904E-4,0
POLYITAN-1,2014-033AJ,2026-06-27T00:52:25.228704,15.33595602,.00088648,98.0939,205.2302,114.7934,245.4230,0,U,40042,999,65510,.62898095E-3,.20395E-3,0
TIGRISAT,2014-033AK,2026-06-27T03:42:24.869664,14.85196626,.00500936,97.7841,327.9382,43.2551,317.2581,0,U,40043,999,64710,.21811682E-3,.1856E-4,0
AEROCUBE 6A,2014-033AM,2026-06-26T23:24:28.276992,14.98188064,.00381665,97.7227,344.8216,343.9568,16.0443,0,U,40045,999,64808,.41232268E-3,.4905E-4,0
AEROCUBE 6B,2014-033AN,2026-06-26T16:49:46.462944,14.99648140,.00377402,97.7227,344.3618,336.0186,23.9278,0,U,40046,999,64818,.37409477E-3,.4617E-4,0
CANX-4,2014-034C,2026-06-27T05:12:17.371872,14.81281845,.00123943,98.3111,53.8976,345.1677,14.9169,0,U,40055,999,64601,.12805565E-3,.942E-5,0
CANX-5,2014-034D,2026-06-27T05:09:51.914016,14.81299077,.00123916,98.3113,53.9400,345.4382,14.6471,0,U,40056,999,63682,.12735879E-3,.937E-5,0
UKUBE-1,2014-037F,2026-06-26T22:51:09.387072,15.13699275,.0003059,98.4236,182.2506,116.7089,243.4453,0,U,40074,999,65003,.50852E-3,.9082E-4,0
BRITE-PL2 (HEWELIUSZ),2014-049B,2026-06-27T06:45:26.361504,14.94630777,.00153357,97.9107,290.3598,77.6712,282.6224,0,U,40119,999,64295,.16500768E-3,.1731E-4,0
AEROCUBE 5C,2015-058B,2026-06-27T07:05:46.917024,14.91492932,.01312583,64.7663,231.1424,59.3302,302.0671,0,U,40965,999,36716,.20351406E-3,.223E-4,0
AEROCUBE 7,2015-058C,2026-06-27T06:18:52.042176,14.95780891,.01209651,64.7605,213.2545,57.7034,303.5729,0,U,40966,999,36746,.27859693E-3,.3429E-4,0
FOX-1A (AO-85),2015-058D,2026-06-27T06:42:26.989920,14.91010546,.01310516,64.7747,247.6192,52.6707,308.6261,0,U,40967,999,11507,.20894147E-3,.2262E-4,0
SINOD-D 1,2015-058E,2026-06-27T07:21:38.285568,14.95961489,.01197119,64.7738,227.2210,49.0910,312.0496,0,U,40968,999,11817,.26882981E-3,.3308E-4,0
SNAP-3 ALICE,2015-058G,2026-06-27T05:32:01.949568,15.62636055,.00246149,64.7505,69.1563,5.3390,354.8014,0,U,40970,999,11845,.16472923E-2,.153159E-2,0
LMRST-SAT,2015-058H,2026-06-27T07:18:24.880032,14.90627413,.01326509,64.7742,243.8990,54.6975,306.6457,0,U,40971,999,11506,.18086797E-3,.192E-4,0
SNAP-3 EDDIE,2015-058J,2026-06-27T02:01:56.529120,15.63765166,.00252892,64.7419,60.3121,8.8401,351.3187,0,U,40972,999,12057,.14128418E-2,.137145E-2,0
PROPCUBE 3,2015-058K,2026-06-27T05:57:29.178432,14.94305313,.0124595,64.7670,221.1000,55.9519,305.3351,0,U,40973,999,11630,.24428562E-3,.2887E-4,0
BISONSAT,2015-058L,2026-06-27T06:08:46.345344,15.16443037,.00802238,64.7571,141.0841,43.1893,317.5485,0,U,40974,999,11714,.76741707E-3,.16112E-3,0
SNAP-3 JIMI,2015-058M,2026-06-27T07:22:39.692640,15.02390905,.01067016,64.7629,187.7503,51.2990,309.7610,0,U,40975,999,11574,.42320459E-3,.6177E-4,0
PROPCUBE 1 (FLORA),2015-058N,2026-06-26T15:56:36.031488,14.89258404,.01312682,64.7749,265.8631,57.2315,304.1365,0,U,40976,999,11767,.1909522E-3,.1953E-4,0
SINOD-D 3,2015-058P,2026-06-27T06:45:25.511328,14.94069554,.01198295,64.7719,244.2968,54.1395,307.0776,0,U,40977,999,11626,.25659727E-3,.2987E-4,0
HORYU-4,2016-012D,2026-06-27T05:19:28.760160,16.09051483,.00089934,30.9822,4.7537,331.5189,28.4985,0,U,41340,999,57242,.12904052E-2,.1206999E-1,.85800442E-3
RAVAN,2016-067B,2026-06-26T22:52:15.723264,15.55621120,.0002661,97.9878,68.6594,357.9218,2.2023,0,U,41849,999,52921,.81761E-3,.56284E-3,0
CELTEE 1,2016-067C,2026-06-27T03:35:04.805952,15.19775634,.00014969,98.0666,45.3961,128.5599,231.5768,0,U,41850,999,52739,.25348195E-3,.5347E-4,0
OPTICUBE 04,2016-067D,2026-06-27T02:06:04.692384,15.09698868,.00169999,98.0693,30.8876,84.8822,275.4345,0,U,41851,999,52666,.1579269E-3,.2481E-4,0
AEROCUBE 8D,2016-067E,2026-06-26T03:33:15.782976,15.24514880,.00050223,98.0682,48.0013,102.1384,258.0415,0,U,41852,999,52743,.34050891E-3,.8298E-4,0
AEROCUBE 8C,2016-067F,2026-06-26T21:26:37.504032,15.24778663,.0006051,98.0548,46.0183,42.3441,317.8261,0,U,41853,999,52754,.32979E-3,.8099E-4,0
CORVUS BC2,2017-042X,2026-06-26T23:02:12.828480,15.06354829,.00146811,97.4070,338.9304,80.4438,279.8448,0,U,42846,999,48853,.20501732E-3,.2964E-4,0
CORVUS BC1,2017-042Y,2026-06-27T00:28:32.442816,15.06517962,.00130769,97.4096,339.8084,59.1572,301.0941,0,U,42847,999,48857,.20461046E-3,.297E-4,0
MAKERSAT 0,2017-073D,2026-06-27T04:07:21.244224,15.32414292,.01047959,97.4619,60.7702,236.8226,122.2932,0,U,43016,999,46799,.50687114E-3,.18824E-3,0
